NORAD_CAT_ID,OBJECT_NAME,OBJECT_TYPE,EPOCH,MEAN_MOTION,ECCENTRICITY,INCLINATION,RA_OF_ASC_NODE,ARG_OF_PERICENTER,MEAN_ANOMALY,BSTAR,MEAN_MOTION_DOT,MEAN_MOTION_DDOT,TLE_LINE0,TLE_LINE1,TLE_LINE2,SEMIMAJOR_AXIS,PERIOD,APOGEE,PERIGEE,DECAYED
55403.0,STARLINK-5597,PAYLOAD,2023-03-22 03:00:36,15.69895227,0.000376,69.9976,310.6879,274.0753,86.0013,-7.7193e-05,-9.474e-05,0.0,0 STARLINK-5597,1 55403U 23014N   23081.12542690 -.00009474  00000-0 -77193-4 0  9997,2 55403  69.9976 310.6879 0003760 274.0753  86.0013 15.69895227  7967,6737.334,91.726,361.732,356.666,0.0
55403.0,STARLINK-5597,PAYLOAD,2023-03-22 16:46:22,15.69926537,0.0003528,69.9977,309.0759,268.1075,91.9717,9.3341e-06,9.1e-06,0.0,0 STARLINK-5597,1 55403U 23014N   23081.69887213  .00000910  00000-0  93341-5 0  9990,2 55403  69.9977 309.0759 0003528 268.1075  91.9717 15.69926537  8056,6737.244,91.724,361.486,356.732,0.0
55403.0,STARLINK-5597,PAYLOAD,2023-03-23 00:25:07,15.69939872,0.0003428,69.9987,308.182,274.4297,85.6507,4.3635e-05,5.041e-05,0.0,0 STARLINK-5597,1 55403U 23014N   23082.01745348  .00005041  00000-0  43635-4 0  9999,2 55403  69.9987 308.1820 0003428 274.4297  85.6507 15.69939872  8100,6737.206,91.723,361.381,356.762,0.0
55403.0,STARLINK-5597,PAYLOAD,2023-03-23 17:14:25,15.69911024,0.0004024,69.9989,306.205,285.6016,74.4735,4.4608e-05,5.152e-05,0.0,0 STARLINK-5597,1 55403U 23014N   23082.71835099  .00005152  00000-0  44608-4 0  9993,2 55403  69.9989 306.2050 0004024 285.6016  74.4735 15.69911024  8212,6737.289,91.725,361.865,356.442,0.0
55403.0,STARLINK-5597,PAYLOAD,2023-03-24 02:24:54,15.699665,0.0004225,69.9976,305.1335,269.6161,90.4551,0.00015468,0.00018463,0.0,0 STARLINK-5597,1 55403U 23014N   23083.10062906  .00018463  00000-0  15468-3 0  9996,2 55403  69.9976 305.1335 0004225 269.6161  90.4551 15.69966500  8277,6737.13,91.722,361.841,356.148,0.0
55403.0,STARLINK-5597,PAYLOAD,2023-03-24 16:10:40,15.69931062,0.0003651,69.9981,303.521,273.9525,86.1253,-2.1516e-06,-4.72e-06,0.0,0 STARLINK-5597,1 55403U 23014N   23083.67408394 -.00000472  00000-0 -21516-5 0  9999,2 55403  69.9981 303.5210 0003651 273.9525  86.1253 15.69931062  8367,6737.231,91.724,361.556,356.636,0.0
55403.0,STARLINK-5597,PAYLOAD,2023-03-24 20:45:57,15.6989891,0.0003731,69.9985,302.9858,279.2997,80.7777,-8.3372e-05,-0.00010216,0.0,0 STARLINK-5597,1 55403U 23014N   23083.86524435 -.00010216  00000-0 -83372-4 0  9999,2 55403  69.9985 302.9858 0003731 279.2997  80.7777 15.69898910  8391,6737.323,91.726,361.702,356.675,0.0
55403.0,STARLINK-5597,PAYLOAD,2023-03-24 22:17:42,15.69902787,0.0003451,69.998,302.8062,276.4375,83.6427,-6.667e-05,-8.215e-05,0.0,0 STARLINK-5597,1 55403U 23014N   23083.92896433 -.00008215  00000-0 -66670-4 0  9994,2 55403  69.9980 302.8062 0003451 276.4375  83.6427 15.69902787  9348,6737.312,91.725,361.502,356.852,0.0
55403.0,STARLINK-5597,PAYLOAD,2023-03-25 21:13:58,15.69958385,0.0002597,69.9989,300.12,265.2834,94.8065,9.6069e-05,0.0001137,0.0,0 STARLINK-5597,1 55403U 23014N   23084.88470346  .00011370  00000-0  96069-4 0  9990,2 55403  69.9989 300.1200 0002597 265.2834  94.8065 15.69958385  8557,6737.153,91.722,360.768,357.268,0.0
55403.0,STARLINK-5597,PAYLOAD,2023-03-26 01:49:14,15.699245,0.0003093,69.9986,299.582,274.3755,85.7087,3.3478e-05,3.815e-05,0.0,0 STARLINK-5597,1 55403U 23014N   23085.07586681  .00003815  00000-0  33478-4 0  9992,2 55403  69.9986 299.5820 0003093 274.3755  85.7087 15.69924500  8586,6737.25,91.724,361.199,357.031,0.0
55403.0,STARLINK-5597,PAYLOAD,2023-03-26 21:42:01,15.69934518,0.0003309,69.9986,297.2525,273.9636,86.1182,5.1702e-05,6.011e-05,0.0,0 STARLINK-5597,1 55403U 23014N   23085.90417967  .00006011  00000-0  51702-4 0  9995,2 55403  69.9986 297.2525 0003309 273.9636  86.1182 15.69934518  9656,6737.221,91.724,361.316,356.857,0.0
55403.0,STARLINK-5597,PAYLOAD,2023-03-27 14:31:17,15.69924219,0.0003332,69.9984,295.28,269.1194,90.962,-9.6534e-06,-1.373e-05,0.0,0 STARLINK-5597,1 55403U 23014N   23086.60506383 -.00001373  00000-0 -96534-5 0  9995,2 55403  69.9984 295.2800 0003332 269.1194  90.9620 15.69924219  9769,6737.251,91.724,361.361,356.871,0.0
55403.0,STARLINK-5597,PAYLOAD,2023-03-27 20:38:17,15.6993971,0.000301,69.9999,294.564,267.962,92.1231,9.8675e-06,9.75e-06,0.0,0 STARLINK-5597,1 55403U 23014N   23086.85992489  .00000975  00000-0  98675-5 0  9991,2 55403  69.9999 294.5640 0003010 267.9620  92.1231 15.69939710  8866,6737.206,91.723,361.099,357.044,0.0
55403.0,STARLINK-5597,PAYLOAD,2023-03-27 22:10:02,15.6993892,0.0003005,69.9999,294.3848,267.8308,92.2544,2.4211e-05,2.701e-05,0.0,0 STARLINK-5597,1 55403U 23014N   23086.92364258  .00002701  00000-0  24211-4 0  9999,2 55403  69.9999 294.3848 0003005 267.8308  92.2544 15.69938920  9816,6737.209,91.723,361.098,357.049,0.0
55403.0,STARLINK-5597,PAYLOAD,2023-03-28 01:13:33,15.69920765,0.0002956,69.9992,294.0273,267.0187,93.0671,-5.2416e-06,-8.43e-06,0.0,0 STARLINK-5597,1 55403U 23014N   23087.05108351 -.00000843  00000-0 -52416-5 0  9990,2 55403  69.9992 294.0273 0002956 267.0187  93.0671 15.69920765  8894,6737.261,91.724,361.117,357.134,0.0
55403.0,STARLINK-5597,PAYLOAD,2023-03-28 13:27:34,15.69928626,0.0003342,69.9988,292.5922,272.1952,87.8861,2.7556e-05,3.102e-05,0.0,0 STARLINK-5597,1 55403U 23014N   23087.56081451  .00003102  00000-0  27556-4 0  9992,2 55403  69.9988 292.5922 0003342 272.1952  87.8861 15.69928626  9910,6737.238,91.724,361.355,356.852,0.0
55403.0,STARLINK-5597,PAYLOAD,2023-03-28 21:06:19,15.69939228,0.0003263,69.9997,291.6992,267.859,92.2232,6.1893e-05,7.24e-05,0.0,0 STARLINK-5597,1 55403U 23014N   23087.87939472  .00007240  00000-0  61893-4 0  9990,2 55403  69.9997 291.6992 0003263 267.8590  92.2232 15.69939228  9022,6737.208,91.723,361.271,356.875,0.0
55403.0,STARLINK-5597,PAYLOAD,2023-03-28 22:38:05,15.69927542,0.0003544,69.9998,291.5188,275.3266,84.7526,3.8196e-05,4.383e-05,0.0,0 STARLINK-5597,1 55403U 23014N   23087.94311507  .00004383  00000-0  38196-4 0  9996,2 55403  69.9998 291.5188 0003544 275.3266  84.7526 15.69927542  9034,6737.241,91.724,361.494,356.719,0.0
55403.0,STARLINK-5597,PAYLOAD,2023-03-29 12:23:51,15.69924456,0.0002788,70.0013,289.9084,267.9881,92.0996,3.7523e-05,4.301e-05,0.0,0 STARLINK-5597,1 55403U 23014N   23088.51656873  .00004301  00000-0  37523-4 0  9991,2 55403  70.0013 289.9084 0002788 267.9881  92.0996 15.69924456 10069,6737.25,91.724,360.993,357.237,0.0
55403.0,STARLINK-5597,PAYLOAD,2023-03-29 20:02:36,15.69945742,0.0003241,70.001,289.0111,277.3103,82.7724,0.00011598,0.00013768,0.0,0 STARLINK-5597,1 55403U 23014N   23088.83514765  .00013768  00000-0  11598-3 0  9999,2 55403  70.0010 289.0111 0003241 277.3103  82.7724 15.69945742 10117,6737.189,91.723,361.238,356.871,0.0
55403.0,STARLINK-5597,PAYLOAD,2023-03-30 00:37:52,15.6993024,0.0003185,70.0,288.4729,279.325,80.7586,4.6911e-05,5.433e-05,0.0,0 STARLINK-5597,1 55403U 23014N   23089.02630074  .00005433  00000-0  46911-4 0  9991,2 55403  70.0000 288.4729 0003185 279.3250  80.7586 15.69930240  9205,6737.234,91.724,361.244,356.953,0.0
55403.0,STARLINK-5597,PAYLOAD,2023-03-30 06:44:51,15.69964923,0.0003518,70.0004,287.757,282.3171,77.763,0.00015028,0.00017927,0.0,0 STARLINK-5597,1 55403U 23014N   23089.28115444  .00017927  00000-0  15028-3 0  9993,2 55403  70.0004 287.7570 0003518 282.3171  77.7630 15.69964923  9246,6737.134,91.722,361.369,356.629,0.0
55403.0,STARLINK-5597,PAYLOAD,2023-03-30 15:55:21,15.69955117,0.0005915,69.9988,286.6835,298.4944,61.5655,6.4153e-05,7.522e-05,0.0,0 STARLINK-5597,1 55403U 23014N   23089.66344602  .00007522  00000-0  64153-4 0  9999,2 55403  69.9988 286.6835 0005915 298.4944  61.5655 15.69955117  9305,6737.162,91.722,363.012,355.042,0.0
55403.0,STARLINK-5597,PAYLOAD,2023-03-31 11:48:08,15.69914998,0.0003054,70.0022,284.3546,294.3631,65.7246,-8.1498e-05,-9.996e-05,0.0,0 STARLINK-5597,1 55403U 23014N   23090.49176802 -.00009996  00000-0 -81498-4 0  9997,2 55403  70.0022 284.3546 0003054 294.3631  65.7246 15.69914998  9439,6737.277,91.725,361.2,357.085,0.0
55403.0,STARLINK-5597,PAYLOAD,2023-03-31 16:23:07,15.70537763,0.0006889,70.0002,283.8155,273.1418,86.899,0.0021471,0.00273615,0.0,0 STARLINK-5597,1 55403U 23014N   23090.68272954  .00273615  00000-0  21471-2 0  9995,2 55403  70.0002 283.8155 0006889 273.1418  86.8990 15.70537763  9460,6735.496,91.688,362.001,352.721,0.0
55403.0,STARLINK-5597,PAYLOAD,2023-04-01 16:51:24,15.7003356,0.000221,70.0001,280.9502,269.1134,90.9808,0.00049439,0.00059921,0.0,0 STARLINK-5597,1 55403U 23014N   23091.70236980  .00059921  00000-0  49439-3 0  9995,2 55403  70.0001 280.9502 0002210 269.1134  90.9808 15.70033560  9625,6736.938,91.718,360.292,357.314,0.0
55403.0,STARLINK-5597,PAYLOAD,2023-04-01 21:26:42,15.69940863,0.0003827,69.9993,280.4131,270.3951,89.6806,0.00019201,0.00022956,0.0,0 STARLINK-5597,1 55403U 23014N   23091.89354993  .00022956  00000-0  19201-3 0  9992,2 55403  69.9993 280.4131 0003827 270.3951  89.6806 15.69940863 10593,6737.203,91.723,361.647,356.49,0.0
55403.0,STARLINK-5597,PAYLOAD,2023-04-02 14:15:59,15.69930368,0.0003391,70.0002,278.4419,276.4131,83.6678,5.6964e-05,6.644e-05,0.0,0 STARLINK-5597,1 55403U 23014N   23092.59443616  .00006644  00000-0  56964-4 0  9995,2 55403  70.0002 278.4419 0003391 276.4131  83.6678 15.69930368 10709,6737.233,91.724,361.383,356.814,0.0
55403.0,STARLINK-5597,PAYLOAD,2023-04-02 20:22:59,15.69940516,0.0003416,69.9993,277.7244,271.5895,88.4909,8.1793e-05,9.64e-05,0.0,0 STARLINK-5597,1 55403U 23014N   23092.84929950  .00009640  00000-0  81793-4 0  9990,2 55403  69.9993 277.7244 0003416 271.5895  88.4909 15.69940516  9809,6737.204,91.723,361.371,356.768,0.0
55403.0,STARLINK-5597,PAYLOAD,2023-04-02 21:54:44,15.69932062,0.0003771,70.0003,277.5462,277.45,82.6267,4.2862e-05,4.946e-05,0.0,0 STARLINK-5597,1 55403U 23014N   23092.91301591  .00004946  00000-0  42862-4 0  9991,2 55403  70.0003 277.5462 0003771 277.4500  82.6267 15.69932062 10752,6737.228,91.724,361.634,356.553,0.0
